GLOBALSTAR M023         
1 25621U 99004A   24280.53255937  .00000013  00000+0  65243-3 0  9999
2 25621  52.0095 105.8146 0009185 288.5547 106.8435 12.62477923183693
GLOBALSTAR M040         
1 25622U 99004B   24280.56728506 -.00000068  00000+0  20148-3 0  9996
2 25622  51.9895 109.4842 0000988 134.8488 261.5751 12.61985609183236
GLOBALSTAR M036         
1 25623U 99004C   24280.82854215 -.00000152  00000+0 -10063-2 0  9992
2 25623  51.9965 188.1094 0010302 289.6217 149.4913 11.86578313148880
GLOBALSTAR M038         
1 25624U 99004D   24280.50223184 -.00000054  00000+0  33977-3 0  9993
2 25624  51.9961  82.1436 0001130 222.0182 176.1979 12.32509767171098
GLOBALSTAR M022         
1 25649U 99012A   24280.65893385 -.00000089  00000+0 -29695-4 0  9993
2 25649  52.0028 260.1030 0002718  30.5601 140.2318 12.02489009145958
GLOBALSTAR M041         
1 25650U 99012B   24280.54522170 -.00000104  00000+0 -23647-3 0  9992
2 25650  52.0001 134.1291 0002407 165.1224 194.9683 11.96658545147915
GLOBALSTAR M046         
1 25651U 99012C   24280.55970556 -.00000113  00000+0 -27073-3 0  9996
2 25651  52.0044 219.7643 0002603  94.9553  76.0853 12.09397701152976
GLOBALSTAR M037         
1 25652U 99012D   24280.60839351 -.00000040  00000+0  35317-3 0  9998
2 25652  51.9993 236.2946 0002170 358.2310 172.5902 12.62420256179241
